{
  "type": "FeatureCollection",
  "features": [
    {
      "type": "Feature",
      "properties": {
        "norad_id": 39766,
        "name": "ALOS-2",
        "group": "resource",
        "lat": -64.45858062137123,
        "lon": -118.6423374200339,
        "alt_km": 639.0833585050568,
        "timestamp": "2025-12-09T09:46:47.304063+00:00",
        "meta_object_name": "ALOS-2",
        "meta_object_id": "2014-029A",
        "meta_epoch": "2025-12-08T22:56:02.113728",
        "meta_mean_motion": 14.79456223,
        "meta_eccentricity": 0.00014358,
        "meta_inclination": 97.9229,
        "meta_ra_of_asc_node": 77.8557,
        "meta_arg_of_pericenter": 101.425,
        "meta_mean_anomaly": 258.7123,
        "meta_ephemeris_type": 0,
        "meta_classification_type": "U",
        "meta_norad_cat_id": 39766,
        "meta_element_set_no": 999,
        "meta_rev_at_epoch": 62345,
        "meta_bstar": 0.00036724716,
        "meta_mean_motion_dot": 2.691e-05,
        "meta_mean_motion_ddot": 0,
        "tle_line1": "1 39766U 14029A   25342.95558002  .00002691  00000+0  36725-3 0  9990",
        "tle_line2": "2 39766  97.9229  77.8557 0001435 101.4250 258.7123 14.79456223623457"
      },
      "geometry": {
        "type": "Point",
        "coordinates": [
          -118.6423374200339,
          -64.45858062137123
        ]
      }
    },
    {
      "type": "Feature",
      "properties": {
        "norad_id": 40010,
        "name": "KAZEOSAT 2",
        "group": "resource",
        "lat": 82.04015515127213,
        "lon": 116.35535771692888,
        "alt_km": 609.1123864606316,
        "timestamp": "2025-12-09T09:46:47.304074+00:00",
        "meta_object_name": "KAZEOSAT 2",
        "meta_object_id": "2014-033A",
        "meta_epoch": "2025-12-09T04:32:09.155040",
        "meta_mean_motion": 14.85157685,
        "meta_eccentricity": 0.0007467,
        "meta_inclination": 97.55,
        "meta_ra_of_asc_node": 187.6864,
        "meta_arg_of_pericenter": 220.0166,
        "meta_mean_anomaly": 140.05,
        "meta_ephemeris_type": 0,
        "meta_classification_type": "U",
        "meta_norad_cat_id": 40010,
        "meta_element_set_no": 999,
        "meta_rev_at_epoch": 62075,
        "meta_bstar": 0.00013798,
        "meta_mean_motion_dot": 1.131e-05,
        "meta_mean_motion_ddot": 0,
        "tle_line1": "1 40010U 14033A   25343.18899485  .00001131  00000+0  13798-3 0  9991",
        "tle_line2": "2 40010  97.5500 187.6864 0007467 220.0166 140.0500 14.85157685620754"
      },
      "geometry": {
        "type": "Point",
        "coordinates": [
          116.35535771692888,
          82.04015515127213
        ]
      }
    },
    {
      "type": "Feature",
      "properties": {
        "norad_id": 40011,
        "name": "HODOYOSHI-4",
        "group": "resource",
        "lat": 32.14615735489053,
        "lon": -2.7688286207423363,
        "alt_km": 597.1839370684429,
        "timestamp": "2025-12-09T09:46:47.304085+00:00",
        "meta_object_name": "HODOYOSHI-4",
        "meta_object_id": "2014-033B",
        "meta_epoch": "2025-12-09T04:16:26.251104",
        "meta_mean_motion": 14.8745877,
        "meta_eccentricity": 0.0022853,
        "meta_inclination": 97.5412,
        "meta_ra_of_asc_node": 172.2378,
        "meta_arg_of_pericenter": 212.8547,
        "meta_mean_anomaly": 147.1251,
        "meta_ephemeris_type": 0,
        "meta_classification_type": "U",
        "meta_norad_cat_id": 40011,
        "meta_element_set_no": 999,
        "meta_rev_at_epoch": 62055,
        "meta_bstar": 0.0001246,
        "meta_mean_motion_dot": 1.081e-05,
        "meta_mean_motion_ddot": 0,
        "tle_line1": "1 40011U 14033B   25343.17808161  .00001081  00000+0  12460-3 0  9991",
        "tle_line2": "2 40011  97.5412 172.2378 0022853 212.8547 147.1251 14.87458770620555"
      },
      "geometry": {
        "type": "Point",
        "coordinates": [
          -2.7688286207423363,
          32.14615735489053
        ]
      }
    },
    {
      "type": "Feature",
      "properties": {
        "norad_id": 40013,
        "name": "DEIMOS-2",
        "group": "resource",
        "lat": -58.37338138781811,
        "lon": 26.785600767396573,
        "alt_km": 596.5147659727081,
        "timestamp": "2025-12-09T09:46:47.304095+00:00",
        "meta_object_name": "DEIMOS-2",
        "meta_object_id": "2014-033D",
        "meta_epoch": "2025-12-09T05:29:41.242848",
        "meta_mean_motion": 14.92950578,
        "meta_eccentricity": 0.0001054,
        "meta_inclination": 97.6064,
        "meta_ra_of_asc_node": 219.1454,
        "meta_arg_of_pericenter": 88.5406,
        "meta_mean_anomaly": 271.5934,
        "meta_ephemeris_type": 0,
        "meta_classification_type": "U",
        "meta_norad_cat_id": 40013,
        "meta_element_set_no": 999,
        "meta_rev_at_epoch": 60937,
        "meta_bstar": 0.00025005,
        "meta_mean_motion_dot": 2.541e-05,
        "meta_mean_motion_ddot": 0,
        "tle_line1": "1 40013U 14033D   25343.22894957  .00002541  00000+0  25005-3 0  9998",
        "tle_line2": "2 40013  97.6064 219.1454 0001054  88.5406 271.5934 14.92950578609375"
      },
      "geometry": {
        "type": "Point",
        "coordinates": [
          26.785600767396573,
          -58.37338138781811
        ]
      }
    },
    {
      "type": "Feature",
      "properties": {
        "norad_id": 40015,
        "name": "HODOYOSHI-3",
        "group": "resource",
        "lat": 73.25907986208047,
        "lon": -4.184975893414186,
        "alt_km": 627.3022350243273,
        "timestamp": "2025-12-09T09:46:47.304105+00:00",
        "meta_object_name": "HODOYOSHI-3",
        "meta_object_id": "2014-033F",
        "meta_epoch": "2025-12-09T01:13:10.934400",
        "meta_mean_motion": 14.8478648,
        "meta_eccentricity": 0.0031809,
        "meta_inclination": 97.6199,
        "meta_ra_of_asc_node": 149.0465,
        "meta_arg_of_pericenter": 260.5751,
        "meta_mean_anomaly": 99.1868,
        "meta_ephemeris_type": 0,
        "meta_classification_type": "U",
        "meta_norad_cat_id": 40015,
        "meta_element_set_no": 999,
        "meta_rev_at_epoch": 61940,
        "meta_bstar": 0.0002815,
        "meta_mean_motion_dot": 2.357e-05,
        "meta_mean_motion_ddot": 0,
        "tle_line1": "1 40015U 14033F   25343.05082100  .00002357  00000+0  28150-3 0  9999",
        "tle_line2": "2 40015  97.6199 149.0465 0031809 260.5751  99.1868 14.84786480619400"
      },
      "geometry": {
        "type": "Point",
        "coordinates": [
          -4.184975893414186,
          73.25907986208047
        ]
      }
    },
    {
      "type": "Feature",
      "properties": {
        "norad_id": 40053,
        "name": "SPOT 7",
        "group": "resource",
        "lat": 62.812162338773014,
        "lon": -118.36296004300422,
        "alt_km": 683.7447427938496,
        "timestamp": "2025-12-09T09:46:47.304116+00:00",
        "meta_object_name": "SPOT 7",
        "meta_object_id": "2014-034A",
        "meta_epoch": "2025-12-08T23:23:12.427296",
        "meta_mean_motion": 14.60726325,
        "meta_eccentricity": 0.00015347,
        "meta_inclination": 98.0908,
        "meta_ra_of_asc_node": 45.1366,
        "meta_arg_of_pericenter": 89.1839,
        "meta_mean_anomaly": 270.9538,
        "meta_ephemeris_type": 0,
        "meta_classification_type": "U",
        "meta_norad_cat_id": 40053,
        "meta_element_set_no": 999,
        "meta_rev_at_epoch": 60936,
        "meta_bstar": 0.00018819104,
        "meta_mean_motion_dot": 8.72e-06,
        "meta_mean_motion_ddot": 0,
        "tle_line1": "1 40053U 14034A   25342.97444939  .00000872  00000+0  18819-3 0  9995",
        "tle_line2": "2 40053  98.0908  45.1366 0001534  89.1839 270.9538 14.60726325609368"
      },
      "geometry": {
        "type": "Point",
        "coordinates": [
          -118.36296004300422,
          62.812162338773014
        ]
      }
    },
    {
      "type": "Feature",
      "properties": {
        "norad_id": 40072,
        "name": "SKYSAT-B",
        "group": "resource",
        "lat": 81.31533734830111,
        "lon": -178.73882326627114,
        "alt_km": 597.3506171282825,
        "timestamp": "2025-12-09T09:46:47.304128+00:00",
        "meta_object_name": "SKYSAT-B",
        "meta_object_id": "2014-037D",
        "meta_epoch": "2025-12-09T02:54:27.041184",
        "meta_mean_motion": 14.87305028,
        "meta_eccentricity": 0.0005857,
        "meta_inclination": 98.3607,
        "meta_ra_of_asc_node": 286.636,
        "meta_arg_of_pericenter": 161.034,
        "meta_mean_anomaly": 199.1094,
        "meta_ephemeris_type": 0,
        "meta_classification_type": "U",
        "meta_norad_cat_id": 40072,
        "meta_element_set_no": 999,
        "meta_rev_at_epoch": 61770,
        "meta_bstar": 0.00030935,
        "meta_mean_motion_dot": 2.731e-05,
        "meta_mean_motion_ddot": 0,
        "tle_line1": "1 40072U 14037D   25343.12114631  .00002731  00000+0  30935-3 0  9999",
        "tle_line2": "2 40072  98.3607 286.6360 0005857 161.0340 199.1094 14.87305028617701"
      },
      "geometry": {
        "type": "Point",
        "coordinates": [
          -178.73882326627114,
          81.31533734830111
        ]
      }
    }
  ]
}